{"type": "FeatureCollection", "features": [ {"type": "Feature", "properties": {"norad_id": 60453, "name": "LEGION 4", "group": "resource", "lat": -42.808524942708935, "lon": 5.166972628870059, "alt_km": 515.558710464421, "timestamp": "2025-12-06T22:38:42.392878+00:00", "meta": {"OBJECT_NAME": "LEGION 4", "OBJECT_ID": "2024-146B", "EPOCH": "2025-12-06T15:03:38.937600", "MEAN_MOTION": 15.1572901, "ECCENTRICITY": 0.00099085, "INCLINATION": 45.0391, "RA_OF_ASC_NODE": 74.6296, "ARG_OF_PERICENTER": 279.0526, "MEAN_ANOMALY": 80.9232, "EPHEMERIS_TYPE": 0, "CLASSIFICATION_TYPE": "U", "NORAD_CAT_ID": 60453, "ELEMENT_SET_NO": 999, "REV_AT_EPOCH": 7165, "BSTAR": 0.0004844786, "MEAN_MOTION_DOT": 9.148e-05, "MEAN_MOTION_DDOT": 0}, "tle": {"line1": "1 60453U 24146B   25340.62753400  .00009148  00000+0  48448-3 0  9998", "line2": "2 60453  45.0391  74.6296 0009908 279.0526  80.9232 15.15729010 71657"}}, "geometry": {"type": "Point", "coordinates": [5.166972628870059, -42.808524942708935]}}, {"type": "Feature", "properties": {"norad_id": 60989, "name": "SENTINEL-2C", "group": "resource", "lat": 44.05286254117768, "lon": 45.1212998049272, "alt_km": 784.7835717465487, "timestamp": "2025-12-06T22:38:42.392888+00:00", "meta": {"OBJECT_NAME": "SENTINEL-2C", "OBJECT_ID": "2024-157A", "EPOCH": "2025-12-06T10:41:19.358880", "MEAN_MOTION": 14.30813732, "ECCENTRICITY": 0.00012017, "INCLINATION": 98.5686, "RA_OF_ASC_NODE": 53.0179, "ARG_OF_PERICENTER": 102.638, "MEAN_ANOMALY": 257.4937, "EPHEMERIS_TYPE": 0, "CLASSIFICATION_TYPE": "U", "NORAD_CAT_ID": 60989, "ELEMENT_SET_NO": 999, "REV_AT_EPOCH": 6542, "BSTAR": 0.00014779688, "MEAN_MOTION_DOT": 3.44e-06, "MEAN_MOTION_DDOT": 0}, "tle": {"line1": "1 60989U 24157A   25340.44536295  .00000344  00000+0  14780-3 0  9996", "line2": "2 60989  98.5686  53.0179 0001201 102.6380 257.4937 14.30813732 65421"}}, "geometry": {"type": "Point", "coordinates": [45.1212998049272, 44.05286254117768]}}, {"type": "Feature", "properties": {"norad_id": 61735, "name": "IONOSFERA-M 1", "group": "resource", "lat": 58.88520393143353, "lon": 45.60409987678137, "alt_km": 810.4717920531575, "timestamp": "2025-12-06T22:38:42.392898+00:00", "meta": {"OBJECT_NAME": "IONOSFERA-M 1", "OBJECT_ID": "2024-199A", "EPOCH": "2025-12-06T15:19:55.205760", "MEAN_MOTION": 14.22711941, "ECCENTRICITY": 0.00012495, "INCLINATION": 98.7415, "RA_OF_ASC_NODE": 210.5336, "ARG_OF_PERICENTER": 30.5446, "MEAN_ANOMALY": 329.5804, "EPHEMERIS_TYPE": 0, "CLASSIFICATION_TYPE": "U", "NORAD_CAT_ID": 61735, "ELEMENT_SET_NO": 999, "REV_AT_EPOCH": 10032, "BSTAR": 8.725476e-05, "MEAN_MOTION_DOT": 1.51e-06, "MEAN_MOTION_DDOT": 0}, "tle": {"line1": "1 61735U 24199A   25340.63883340  .00000151  00000+0  87255-4 0  9993", "line2": "2 61735  98.7415 210.5336 0001249  30.5446 329.5804 14.22711941100325"}}, "geometry": {"type": "Point", "coordinates": [45.60409987678137, 58.88520393143353]}}, {"type": "Feature", "properties": {"norad_id": 61736, "name": "IONOSFERA-M 2", "group": "resource", "lat": -56.50704024725366, "lon": -135.8063355590126, "alt_km": 824.2774995495756, "timestamp": "2025-12-06T22:38:42.392908+00:00", "meta": {"OBJECT_NAME": "IONOSFERA-M 2", "OBJECT_ID": "2024-199B", "EPOCH": "2025-12-06T14:28:33.004992", "MEAN_MOTION": 14.22714126, "ECCENTRICITY": 0.00014748, "INCLINATION": 98.7413, "RA_OF_ASC_NODE": 210.4108, "ARG_OF_PERICENTER": 118.2424, "MEAN_ANOMALY": 241.8903, "EPHEMERIS_TYPE": 0, "CLASSIFICATION_TYPE": "U", "NORAD_CAT_ID": 61736, "ELEMENT_SET_NO": 999, "REV_AT_EPOCH": 10344, "BSTAR": 9.2072273e-05, "MEAN_MOTION_DOT": 1.62e-06, "MEAN_MOTION_DDOT": 0}, "tle": {"line1": "1 61736U 24199B   25340.60315978  .00000162  00000+0  92072-4 0  9993", "line2": "2 61736  98.7413 210.4108 0001474 118.2424 241.8903 14.22714126103440"}}, "geometry": {"type": "Point", "coordinates": [-135.8063355590126, -56.50704024725366]}}, {"type": "Feature", "properties": {"norad_id": 63772, "name": "BIOMASS", "group": "resource", "lat": -76.33426137082631, "lon": -158.2572663045054, "alt_km": 676.9349319544463, "timestamp": "2025-12-06T22:38:42.392931+00:00", "meta": {"OBJECT_NAME": "BIOMASS", "OBJECT_ID": "2025-090A", "EPOCH": "2025-12-06T11:32:58.794720", "MEAN_MOTION": 14.67526401, "ECCENTRICITY": 0.00011513, "INCLINATION": 98.0712, "RA_OF_ASC_NODE": 165.5814, "ARG_OF_PERICENTER": 62.7963, "MEAN_ANOMALY": 297.3359, "EPHEMERIS_TYPE": 0, "CLASSIFICATION_TYPE": "U", "NORAD_CAT_ID": 63772, "ELEMENT_SET_NO": 999, "REV_AT_EPOCH": 3242, "BSTAR": -0.00051875312, "MEAN_MOTION_DOT": -2.987e-05, "MEAN_MOTION_DDOT": 0}, "tle": {"line1": "1 63772U 25090A   25340.48123605 -.00002987  00000+0 -51875-3 0  9990", "line2": "2 63772  98.0712 165.5814 0001151  62.7963 297.3359 14.67526401 32420"}}, "geometry": {"type": "Point", "coordinates": [-158.2572663045054, -76.33426137082631]}}, {"type": "Feature", "properties": {"norad_id": 64694, "name": "GOSAT-GW (IBUKI GW)", "group": "resource", "lat": 49.10755453160837, "lon": 105.95783675278977, "alt_km": 663.7168144212283, "timestamp": "2025-12-06T22:38:42.392942+00:00", "meta": {"OBJECT_NAME": "GOSAT-GW (IBUKI GW)", "OBJECT_ID": "2025-141A", "EPOCH": "2025-12-06T13:52:20.673984", "MEAN_MOTION": 14.67556502, "ECCENTRICITY": 0.00015277, "INCLINATION": 98.0422, "RA_OF_ASC_NODE": 276.2026, "ARG_OF_PERICENTER": 83.272, "MEAN_ANOMALY": 276.8659, "EPHEMERIS_TYPE": 0, "CLASSIFICATION_TYPE": "U", "NORAD_CAT_ID": 64694, "ELEMENT_SET_NO": 999, "REV_AT_EPOCH": 2359, "BSTAR": 0.00039481795, "MEAN_MOTION_DOT": 2.193e-05, "MEAN_MOTION_DDOT": 0}, "tle": {"line1": "1 64694U 25141A   25340.57801706  .00002193  00000+0  39482-3 0  9993", "line2": "2 64694  98.0422 276.2026 0001527  83.2720 276.8659 14.67556502 23591"}}, "geometry": {"type": "Point", "coordinates": [105.95783675278977, 49.10755453160837]}}, {"type": "Feature", "properties": {"norad_id": 64876, "name": "IONOSFERA-M 3", "group": "resource", "lat": 13.156636376694095, "lon": -59.04785826759101, "alt_km": 820.5828083027518, "timestamp": "2025-12-06T22:38:42.392952+00:00", "meta": {"OBJECT_NAME": "IONOSFERA-M 3", "OBJECT_ID": "2025-155A", "EPOCH": "2025-12-06T14:08:08.748960", "MEAN_MOTION": 14.21438707, "ECCENTRICITY": 0.00023609, "INCLINATION": 98.5775, "RA_OF_ASC_NODE": 302.6295, "ARG_OF_PERICENTER": 69.7481, "MEAN_ANOMALY": 290.395, "EPHEMERIS_TYPE": 0, "CLASSIFICATION_TYPE": "U", "NORAD_CAT_ID": 64876, "ELEMENT_SET_NO": 999, "REV_AT_EPOCH": 1904, "BSTAR": 9.9631662e-05, "MEAN_MOTION_DOT": 1.75e-06, "MEAN_MOTION_DDOT": 0}, "tle": {"line1": "1 64876U 25155A   25340.58899015  .00000175  00000+0  99632-4 0  9993", "line2": "2 64876  98.5775 302.6295 0002360  69.7481 290.3950 14.21438707 19046"}}, "geometry": {"type": "Point", "coordinates": [-59.04785826759101, 13.156636376694095]}}, {"type": "Feature", "properties": {"norad_id": 64877, "name": "IONOSFERA-M 4", "group": "resource", "lat": -14.046367035844913, "lon": 120.72953033278537, "alt_km": 825.7599753817285, "timestamp": "2025-12-06T22:38:42.392962+00:00", "meta": {"OBJECT_NAME": "IONOSFERA-M 4", "OBJECT_ID": "2025-155B", "EPOCH": "2025-12-06T13:17:17.062944", "MEAN_MOTION": 14.21439745, "ECCENTRICITY": 0.0001715, "INCLINATION": 98.5774, "RA_OF_ASC_NODE": 302.5148, "ARG_OF_PERICENTER": 69.7724, "MEAN_ANOMALY": 290.3638, "EPHEMERIS_TYPE": 0, "CLASSIFICATION_TYPE": "U", "NORAD_CAT_ID": 64877, "ELEMENT_SET_NO": 999, "REV_AT_EPOCH": 1903, "BSTAR": 0.0001020022, "MEAN_MOTION_DOT": 1.8e-06, "MEAN_MOTION_DDOT": 0}, "tle": {"line1": "1 64877U 25155B   25340.55366971  .00000180  00000+0  10200-3 0  9990", "line2": "2 64877  98.5774 302.5148 0001715  69.7724 290.3638 14.21439745 19030"}}, "geometry": {"type": "Point", "coordinates": [120.72953033278537, -14.046367035844913]}}, {"type": "Feature", "properties": {"norad_id": 64899, "name": "MICROCARB", "group": "resource", "lat": 13.989255668735868, "lon": 54.3730964639129, "alt_km": 665.5818500857813, "timestamp": "2025-12-06T22:38:42.392973+00:00", "meta": {"OBJECT_NAME": "MICROCARB", "OBJECT_ID": "2025-156A", "EPOCH": "2025-12-06T11:09:40.652640", "MEAN_MOTION": 14.72041763, "ECCENTRICITY": 0.00167151, "INCLINATION": 98.003, "RA_OF_ASC_NODE": 55.9109, "ARG_OF_PERICENTER": 164.2071, "MEAN_ANOMALY": 195.9661, "EPHEMERIS_TYPE": 0, "CLASSIFICATION_TYPE": "U", "NORAD_CAT_ID": 64899, "ELEMENT_SET_NO": 999, "REV_AT_EPOCH": 1961, "BSTAR": 0.00024942733, "MEAN_MOTION_DOT": 1.52e-05, "MEAN_MOTION_DDOT": 0}, "tle": {"line1": "1 64899U 25156A   25340.46505385  .00001520  00000+0  24943-3 0  9997", "line2": "2 64899  98.0030  55.9109 0016715 164.2071 195.9661 14.72041763 19617"}}, "geometry": {"type": "Point", "coordinates": [54.3730964639129, 13.989255668735868]}}, {"type": "Feature", "properties": {"norad_id": 64900, "name": "CO3D 3", "group": "resource", "lat": 46.54569979341061, "lon": -114.68323223276927, "alt_km": 500.3578949234188, "timestamp": "2025-12-06T22:38:42.392983+00:00", "meta": {"OBJECT_NAME": "CO3D 3", "OBJECT_ID": "2025-156B", "EPOCH": "2025-12-06T14:09:50.318208", "MEAN_MOTION": 15.20196461, "ECCENTRICITY": 0.00013134, "INCLINATION": 97.4348, "RA_OF_ASC_NODE": 57.0462, "ARG_OF_PERICENTER": 112.6982, "MEAN_ANOMALY": 247.4392, "EPHEMERIS_TYPE": 0, "CLASSIFICATION_TYPE": "U", "NORAD_CAT_ID": 64900, "ELEMENT_SET_NO": 999, "REV_AT_EPOCH": 2027, "BSTAR": 0.00050599382, "MEAN_MOTION_DOT": 0.000109, "MEAN_MOTION_DDOT": 0}, "tle": {"line1": "1 64900U 25156B   25340.59016572  .00010900  00000+0  50599-3 0  9997", "line2": "2 64900  97.4348  57.0462 0001313 112.6982 247.4392 15.20196461 20274"}}, "geometry": {"type": "Point", "coordinates": [-114.68323223276927, 46.54569979341061]}}]}